{"type": "FeatureCollection", "features": [ {"type": "Feature", "properties": {"norad_id": 36687, "name": "FENGYUN 1C DEB", "group": "fengyun-1c-debris", "lat": -54.8868781160331, "lon": 97.85318007867609, "alt_km": 866.8321634702324, "timestamp": "2025-12-25T07:41:10.011727+00:00", "meta": {"OBJECT_NAME": "FENGYUN 1C DEB", "OBJECT_ID": "1999-025DZH", "EPOCH": "2025-12-17T23:51:08.993376", "MEAN_MOTION": 14.04533718, "ECCENTRICITY": 0.00903258, "INCLINATION": 98.7154, "RA_OF_ASC_NODE": 78.2194, "ARG_OF_PERICENTER": 250.4808, "MEAN_ANOMALY": 108.6587, "EPHEMERIS_TYPE": 0, "CLASSIFICATION_TYPE": "U", "NORAD_CAT_ID": 36687, "ELEMENT_SET_NO": 999, "REV_AT_EPOCH": 62796, "BSTAR": 6.2205267e-05, "MEAN_MOTION_DOT": 6e-07, "MEAN_MOTION_DDOT": 0}, "tle": {"line1": "1 36687U 99025DZH 25351.99385409  .00000060  00000+0  62205-4 0  9992", "line2": "2 36687  98.7154  78.2194 0090325 250.4808 108.6587 14.04533718627964"}}, "geometry": {"type": "Point", "coordinates": [97.85318007867609, -54.8868781160331]}}, {"type": "Feature", "properties": {"norad_id": 36689, "name": "FENGYUN 1C DEB", "group": "fengyun-1c-debris", "lat": 7.720137191112775, "lon": 72.93237530367303, "alt_km": 979.569236613549, "timestamp": "2025-12-25T07:41:10.011737+00:00", "meta": {"OBJECT_NAME": "FENGYUN 1C DEB", "OBJECT_ID": "1999-025DZK", "EPOCH": "2025-11-28T10:04:14.213280", "MEAN_MOTION": 13.74189275, "ECCENTRICITY": 0.03131537, "INCLINATION": 98.4796, "RA_OF_ASC_NODE": 227.8431, "ARG_OF_PERICENTER": 334.7216, "MEAN_ANOMALY": 23.8887, "EPHEMERIS_TYPE": 0, "CLASSIFICATION_TYPE": "U", "NORAD_CAT_ID": 36689, "ELEMENT_SET_NO": 999, "REV_AT_EPOCH": 58016, "BSTAR": 0.0027905602, "MEAN_MOTION_DOT": 3.71e-05, "MEAN_MOTION_DDOT": 0}, "tle": {"line1": "1 36689U 99025DZK 25332.41960895  .00003710  00000+0  27906-2 0  9990", "line2": "2 36689  98.4796 227.8431 0313153 334.7216  23.8887 13.74189275580169"}}, "geometry": {"type": "Point", "coordinates": [72.93237530367303, 7.720137191112775]}}, {"type": "Feature", "properties": {"norad_id": 36691, "name": "FENGYUN 1C DEB", "group": "fengyun-1c-debris", "lat": 48.7512049437996, "lon": -11.093756836688415, "alt_km": 945.1223239130786, "timestamp": "2025-12-25T07:41:10.011747+00:00", "meta": {"OBJECT_NAME": "FENGYUN 1C DEB", "OBJECT_ID": "1999-025DZM", "EPOCH": "2025-12-08T17:50:07.073952", "MEAN_MOTION": 14.07105067, "ECCENTRICITY": 0.01290803, "INCLINATION": 98.6374, "RA_OF_ASC_NODE": 343.0423, "ARG_OF_PERICENTER": 246.8073, "MEAN_ANOMALY": 111.9457, "EPHEMERIS_TYPE": 0, "CLASSIFICATION_TYPE": "U", "NORAD_CAT_ID": 36691, "ELEMENT_SET_NO": 999, "REV_AT_EPOCH": 59553, "BSTAR": 0.0032098608, "MEAN_MOTION_DOT": 5.753e-05, "MEAN_MOTION_DDOT": 0}, "tle": {"line1": "1 36691U 99025DZM 25342.74313743  .00005753  00000+0  32099-2 0  9992", "line2": "2 36691  98.6374 343.0423 0129080 246.8073 111.9457 14.07105067595539"}}, "geometry": {"type": "Point", "coordinates": [-11.093756836688415, 48.7512049437996]}}, {"type": "Feature", "properties": {"norad_id": 36692, "name": "FENGYUN 1C DEB", "group": "fengyun-1c-debris", "lat": 26.857955629105753, "lon": 91.51626280022278, "alt_km": 998.0266333387563, "timestamp": "2025-12-25T07:41:10.011757+00:00", "meta": {"OBJECT_NAME": "FENGYUN 1C DEB", "OBJECT_ID": "1999-025DZN", "EPOCH": "2025-12-24T13:43:23.157120", "MEAN_MOTION": 13.93485945, "ECCENTRICITY": 0.01144657, "INCLINATION": 99.9949, "RA_OF_ASC_NODE": 265.5847, "ARG_OF_PERICENTER": 342.2339, "MEAN_ANOMALY": 17.4832, "EPHEMERIS_TYPE": 0, "CLASSIFICATION_TYPE": "U", "NORAD_CAT_ID": 36692, "ELEMENT_SET_NO": 999, "REV_AT_EPOCH": 59970, "BSTAR": 0.0004851142, "MEAN_MOTION_DOT": 6.19e-06, "MEAN_MOTION_DDOT": 0}, "tle": {"line1": "1 36692U 99025DZN 25358.57179580  .00000619  00000+0  48511-3 0  9993", "line2": "2 36692  99.9949 265.5847 0114465 342.2339  17.4832 13.93485945599707"}}, "geometry": {"type": "Point", "coordinates": [91.51626280022278, 26.857955629105753]}}, {"type": "Feature", "properties": {"norad_id": 36695, "name": "FENGYUN 1C DEB", "group": "fengyun-1c-debris", "lat": 33.88370765933758, "lon": 165.81565852616106, "alt_km": 631.3719601278917, "timestamp": "2025-12-25T07:41:10.011768+00:00", "meta": {"OBJECT_NAME": "FENGYUN 1C DEB", "OBJECT_ID": "1999-025DZR", "EPOCH": "2025-12-24T04:25:32.338848", "MEAN_MOTION": 14.43766629, "ECCENTRICITY": 0.02577513, "INCLINATION": 98.2225, "RA_OF_ASC_NODE": 339.1444, "ARG_OF_PERICENTER": 95.6825, "MEAN_ANOMALY": 267.3815, "EPHEMERIS_TYPE": 0, "CLASSIFICATION_TYPE": "U", "NORAD_CAT_ID": 36695, "ELEMENT_SET_NO": 999, "REV_AT_EPOCH": 89733, "BSTAR": 0.00019034528, "MEAN_MOTION_DOT": 9.19e-06, "MEAN_MOTION_DDOT": 0}, "tle": {"line1": "1 36695U 99025DZR 25358.18440207  .00000919  00000+0  19035-3 0  9992", "line2": "2 36695  98.2225 339.1444 0257751  95.6825 267.3815 14.43766629897339"}}, "geometry": {"type": "Point", "coordinates": [165.81565852616106, 33.88370765933758]}}, {"type": "Feature", "properties": {"norad_id": 36696, "name": "FENGYUN 1C DEB", "group": "fengyun-1c-debris", "lat": -9.237323532124353, "lon": -172.5576132533591, "alt_km": 768.1976998436248, "timestamp": "2025-12-25T07:41:10.011778+00:00", "meta": {"OBJECT_NAME": "FENGYUN 1C DEB", "OBJECT_ID": "1999-025DZS", "EPOCH": "2025-12-20T18:21:37.280448", "MEAN_MOTION": 14.39290248, "ECCENTRICITY": 0.0022773, "INCLINATION": 98.991, "RA_OF_ASC_NODE": 4.1437, "ARG_OF_PERICENTER": 304.9139, "MEAN_ANOMALY": 54.9908, "EPHEMERIS_TYPE": 0, "CLASSIFICATION_TYPE": "U", "NORAD_CAT_ID": 36696, "ELEMENT_SET_NO": 999, "REV_AT_EPOCH": 64511, "BSTAR": 0.0012348867, "MEAN_MOTION_DOT": 3.799e-05, "MEAN_MOTION_DDOT": 0}, "tle": {"line1": "1 36696U 99025DZS 25354.76501482  .00003799  00000+0  12349-2 0  9995", "line2": "2 36696  98.9910   4.1437 0022773 304.9139  54.9908 14.39290248645111"}}, "geometry": {"type": "Point", "coordinates": [-172.5576132533591, -9.237323532124353]}}, {"type": "Feature", "properties": {"norad_id": 36699, "name": "FENGYUN 1C DEB", "group": "fengyun-1c-debris", "lat": -80.93053203524521, "lon": 102.85304518436376, "alt_km": 885.8962531357056, "timestamp": "2025-12-25T07:41:10.011788+00:00", "meta": {"OBJECT_NAME": "FENGYUN 1C DEB", "OBJECT_ID": "1999-025DZV", "EPOCH": "2025-12-23T05:32:53.455200", "MEAN_MOTION": 14.24305286, "ECCENTRICITY": 0.00948854, "INCLINATION": 98.5593, "RA_OF_ASC_NODE": 351.4625, "ARG_OF_PERICENTER": 99.8572, "MEAN_ANOMALY": 261.3335, "EPHEMERIS_TYPE": 0, "CLASSIFICATION_TYPE": "U", "NORAD_CAT_ID": 36699, "ELEMENT_SET_NO": 999, "REV_AT_EPOCH": 73476, "BSTAR": 0.00021503407, "MEAN_MOTION_DOT": 4.78e-06, "MEAN_MOTION_DDOT": 0}, "tle": {"line1": "1 36699U 99025DZV 25357.23117425  .00000478  00000+0  21503-3 0  9997", "line2": "2 36699  98.5593 351.4625 0094885  99.8572 261.3335 14.24305286734769"}}, "geometry": {"type": "Point", "coordinates": [102.85304518436376, -80.93053203524521]}}, {"type": "Feature", "properties": {"norad_id": 36701, "name": "FENGYUN 1C DEB", "group": "fengyun-1c-debris", "lat": -4.6603162219857035, "lon": -41.20252306068941, "alt_km": 1118.838802531328, "timestamp": "2025-12-25T07:41:10.011798+00:00", "meta": {"OBJECT_NAME": "FENGYUN 1C DEB", "OBJECT_ID": "1999-025DZX", "EPOCH": "2025-12-21T02:09:26.635104", "MEAN_MOTION": 13.71361429, "ECCENTRICITY": 0.02585974, "INCLINATION": 102.7462, "RA_OF_ASC_NODE": 312.1401, "ARG_OF_PERICENTER": 234.4511, "MEAN_ANOMALY": 123.2265, "EPHEMERIS_TYPE": 0, "CLASSIFICATION_TYPE": "U", "NORAD_CAT_ID": 36701, "ELEMENT_SET_NO": 999, "REV_AT_EPOCH": 61253, "BSTAR": 0.0014689907, "MEAN_MOTION_DOT": 1.603e-05, "MEAN_MOTION_DDOT": 0}, "tle": {"line1": "1 36701U 99025DZX 25355.08989161  .00001603  00000+0  14690-2 0  9995", "line2": "2 36701 102.7462 312.1401 0258597 234.4511 123.2265 13.71361429612534"}}, "geometry": {"type": "Point", "coordinates": [-41.20252306068941, -4.6603162219857035]}}, {"type": "Feature", "properties": {"norad_id": 36707, "name": "FENGYUN 1C DEB", "group": "fengyun-1c-debris", "lat": -19.078336463821234, "lon": -137.81504694897967, "alt_km": 853.1489867352511, "timestamp": "2025-12-25T07:41:10.011808+00:00", "meta": {"OBJECT_NAME": "FENGYUN 1C DEB", "OBJECT_ID": "1999-025EAD", "EPOCH": "2025-12-21T21:25:47.185536", "MEAN_MOTION": 14.17337167, "ECCENTRICITY": 0.00496219, "INCLINATION": 98.751, "RA_OF_ASC_NODE": 41.8648, "ARG_OF_PERICENTER": 96.1028, "MEAN_ANOMALY": 264.5804, "EPHEMERIS_TYPE": 0, "CLASSIFICATION_TYPE": "U", "NORAD_CAT_ID": 36707, "ELEMENT_SET_NO": 999, "REV_AT_EPOCH": 64209, "BSTAR": 0.00072069372, "MEAN_MOTION_DOT": 1.432e-05, "MEAN_MOTION_DDOT": 0}, "tle": {"line1": "1 36707U 99025EAD 25355.89290724  .00001432  00000+0  72069-3 0  9995", "line2": "2 36707  98.7510  41.8648 0049621  96.1028 264.5804 14.17337167642094"}}, "geometry": {"type": "Point", "coordinates": [-137.81504694897967, -19.078336463821234]}}, {"type": "Feature", "properties": {"norad_id": 36710, "name": "FENGYUN 1C DEB", "group": "fengyun-1c-debris", "lat": 38.86920815232407, "lon": -116.80225176342181, "alt_km": 674.6218746851137, "timestamp": "2025-12-25T07:41:10.011818+00:00", "meta": {"OBJECT_NAME": "FENGYUN 1C DEB", "OBJECT_ID": "1999-025EAG", "EPOCH": "2025-12-15T10:11:57.749280", "MEAN_MOTION": 14.49882943, "ECCENTRICITY": 0.00679739, "INCLINATION": 98.3812, "RA_OF_ASC_NODE": 46.5328, "ARG_OF_PERICENTER": 173.535, "MEAN_ANOMALY": 186.6737, "EPHEMERIS_TYPE": 0, "CLASSIFICATION_TYPE": "U", "NORAD_CAT_ID": 36710, "ELEMENT_SET_NO": 999, "REV_AT_EPOCH": 64992, "BSTAR": 0.00098752348, "MEAN_MOTION_DOT": 3.884e-05, "MEAN_MOTION_DDOT": 0}, "tle": {"line1": "1 36710U 99025EAG 25349.42497395  .00003884  00000+0  98752-3 0  9994", "line2": "2 36710  98.3812  46.5328 0067973 173.5350 186.6737 14.49882943649924"}}, "geometry": {"type": "Point", "coordinates": [-116.80225176342181, 38.86920815232407]}}]}